NORAD_CAT_ID,OBJECT_NAME,OBJECT_TYPE,EPOCH,MEAN_MOTION,ECCENTRICITY,INCLINATION,RA_OF_ASC_NODE,ARG_OF_PERICENTER,MEAN_ANOMALY,BSTAR,MEAN_MOTION_DOT,MEAN_MOTION_DDOT,TLE_LINE0,TLE_LINE1,TLE_LINE2,SEMIMAJOR_AXIS,PERIOD,APOGEE,PERIGEE,DECAYED
53158.0,STARLINK-4054,PAYLOAD,2024-08-14 08:19:11,15.08826031,0.0001536,53.2169,213.4723,94.5986,265.5182,-0.00012899,-2.339e-05,0.0,0 STARLINK-4054,1 53158U 22083AC  24227.34666152 -.00002339  00000-0 -12899-3 0  9998,2 53158  53.2169 213.4723 0001536  94.5986 265.5182 15.08826031114951,6917.923,95.438,540.851,538.725,0.0
53158.0,STARLINK-4054,PAYLOAD,2024-08-14 16:16:07,15.08829059,0.0001478,53.2167,211.9855,93.8844,266.2317,-8.9905e-05,-1.718e-05,0.0,0 STARLINK-4054,1 53158U 22083AC  24227.67786073 -.00001718  00000-0 -89905-4 0  9992,2 53158  53.2167 211.9855 0001478  93.8844 266.2317 15.08829059115006,6917.914,95.438,540.801,538.756,0.0
53158.0,STARLINK-4054,PAYLOAD,2024-08-15 04:59:12,15.08831452,0.0001426,53.2161,209.6066,92.3609,267.7546,3.0073e-05,1.91e-06,0.0,0 STARLINK-4054,1 53158U 22083AC  24228.20777988  .00000191  00000-0  30073-4 0  9991,2 53158  53.2161 209.6066 0001426  92.3609 267.7546 15.08831452115712,6917.907,95.438,540.758,538.785,0.0
53158.0,STARLINK-4054,PAYLOAD,2024-08-15 16:06:53,15.08836542,0.0001397,53.2162,207.5243,89.9738,270.1414,9.9287e-05,1.292e-05,0.0,0 STARLINK-4054,1 53158U 22083AC  24228.67145709  .00001292  00000-0  99287-4 0  9997,2 53158  53.2162 207.5243 0001397  89.9738 270.1414 15.08836542115154,6917.891,95.438,540.722,538.79,0.0
53158.0,STARLINK-4054,PAYLOAD,2024-08-16 04:49:58,15.08841045,0.0001213,53.2154,205.1432,85.8415,274.2716,0.00028346,4.226e-05,0.0,0 STARLINK-4054,1 53158U 22083AC  24229.20137335  .00004226  00000-0  28346-3 0  9990,2 53158  53.2154 205.1432 0001213  85.8415 274.2716 15.08841045115865,6917.877,95.437,540.581,538.903,0.0
53158.0,STARLINK-4054,PAYLOAD,2024-08-17 04:40:45,15.08850801,0.0001217,53.2152,200.6818,87.4579,272.6552,0.00016712,2.374e-05,0.0,0 STARLINK-4054,1 53158U 22083AC  24230.19496960  .00002374  00000-0  16712-3 0  9998,2 53158  53.2152 200.6818 0001217  87.4579 272.6552 15.08850801115381,6917.847,95.437,540.554,538.87,0.0
53158.0,STARLINK-4054,PAYLOAD,2024-08-18 04:31:32,15.08844441,0.0001405,53.2159,196.2198,98.556,261.5592,-2.8375e-05,-7.4e-06,0.0,0 STARLINK-4054,1 53158U 22083AC  24231.18857311 -.00000740  00000-0 -28375-4 0  9995,2 53158  53.2159 196.2198 0001405  98.5560 261.5592 15.08844441116162,6917.867,95.437,540.704,538.76,0.0
53158.0,STARLINK-4054,PAYLOAD,2024-08-18 07:42:18,15.08844114,0.0001414,53.216,195.626,97.001,263.1143,-3.3226e-05,-8.17e-06,0.0,0 STARLINK-4054,1 53158U 22083AC  24231.32105295 -.00000817  00000-0 -33226-4 0  9994,2 53158  53.2160 195.6260 0001414  97.0010 263.1143 15.08844114115550,6917.868,95.437,540.711,538.755,0.0
53158.0,STARLINK-4054,PAYLOAD,2024-08-19 13:54:38,15.08844592,0.0001327,53.2152,189.9766,93.9462,266.1682,-3.2122e-05,-7.99e-06,0.0,0 STARLINK-4054,1 53158U 22083AC  24232.57961079 -.00000799  00000-0 -32122-4 0  9995,2 53158  53.2152 189.9766 0001327  93.9462 266.1682 15.08844592115749,6917.866,95.437,540.649,538.813,0.0
53158.0,STARLINK-4054,PAYLOAD,2024-08-20 04:13:07,15.08775249,0.0001847,53.2159,187.3043,109.7138,250.4053,0.00091143,0.00014222,0.0,0 STARLINK-4054,1 53158U 22083AC  24233.17578549  .00014222  00000-0  91143-3 0  9999,2 53158  53.2159 187.3043 0001847 109.7138 250.4053 15.08775249116469,6918.078,95.442,541.221,538.666,0.0
53158.0,STARLINK-4054,PAYLOAD,2024-08-20 05:48:30,15.08798851,0.0001633,53.2157,187.0046,103.3463,256.7711,0.00064664,0.00010007,0.0,0 STARLINK-4054,1 53158U 22083AC  24233.24202064  .00010007  00000-0  64664-3 0  9998,2 53158  53.2157 187.0046 0001633 103.3463 256.7711 15.08798851116476,6918.006,95.44,541.001,538.741,0.0
53158.0,STARLINK-4054,PAYLOAD,2024-08-21 04:03:54,15.08826114,0.0001523,53.2167,182.8424,101.8054,258.3109,0.00026963,4.004e-05,0.0,0 STARLINK-4054,1 53158U 22083AC  24234.16937681  .00004004  00000-0  26963-3 0  9990,2 53158  53.2167 182.8424 0001523 101.8054 258.3109 15.08826114116616,6917.923,95.438,540.841,538.734,0.0
53158.0,STARLINK-4054,PAYLOAD,2024-08-21 05:39:17,15.08841611,0.0001407,53.2168,182.545,95.6919,264.4234,6.6816e-05,7.76e-06,0.0,0 STARLINK-4054,1 53158U 22083AC  24234.23561406  .00000776  00000-0  66816-4 0  9990,2 53158  53.2168 182.5450 0001407  95.6919 264.4234 15.08841611116621,6917.875,95.437,540.714,538.767,0.0
